{
  "type": "FeatureCollection",
  "features": [
    {
      "type": "Feature",
      "properties": {
        "site_id": "bengaluru_cubbon_park",
        "name": "Cubbon Park, Bengaluru",
        "crs": "EPSG:32643",
        "description": "Dense tropical urban arboretum with silver oak, mahogany, and bamboo groves."
      },
      "geometry": {
        "type": "Polygon",
        "coordinates": [
          [
            [
              77.59171142578126,
              12.977259633120097
            ],
            [
              77.592919921875,
              12.977259633120097
            ],
            [
              77.5931396484375,
              12.976590522879183
            ],
            [
              77.5931396484375,
              12.975867883819
            ],
            [
              77.59286499023438,
              12.975653768541907
            ],
            [
              77.59176635742188,
              12.975653768541907
            ],
            [
              77.59149169921875,
              12.976322878782819
            ],
            [
              77.59149169921875,
              12.977045517843004
            ],
            [
              77.59171142578126,
              12.977259633120097
            ]
          ]
        ]
      }
    }
  ]
}