<?xml version="1.0" encoding="UTF-8"?>
<kml xmlns="http://www.opengis.net/kml/2.2">
  <Document>
    <name>Cubbon Park, Bengaluru - Cadastral AOI Perimeter</name>
    <Placemark>
      <name>Cubbon Park, Bengaluru Boundary</name>
      <description>Official audit perimeter polygon for carbon accounting</description>
      <Style>
        <LineStyle>
          <color>ff4a5a16</color>
          <width>2</width>
        </LineStyle>
        <PolyStyle>
          <color>404a5a16</color>
        </PolyStyle>
      </Style>
      <Polygon>
        <extrude>1</extrude>
        <altitudeMode>clampToGround</altitudeMode>
        <outerBoundaryIs>
          <LinearRing>
            <coordinates>
              77.591711,12.977260,0 77.592920,12.977260,0 77.593140,12.976591,0 77.593140,12.975868,0 77.592865,12.975654,0 77.591766,12.975654,0 77.591492,12.976323,0 77.591492,12.977046,0 77.591711,12.977260,0
            </coordinates>
          </LinearRing>
        </outerBoundaryIs>
      </Polygon>
    </Placemark>
  </Document>
</kml>
