{
  "type": "FeatureCollection",
  "features": [
    {
      "type": "Feature",
      "properties": {
        "site_id": "delhi_lodi_gardens",
        "name": "Lodi Gardens, New Delhi",
        "crs": "EPSG:32643",
        "description": "Historic urban Mughal heritage park with mature neem, banyan, and jamun canopies."
      },
      "geometry": {
        "type": "Polygon",
        "coordinates": [
          [
            [
              77.21880798339845,
              28.594337313038526
            ],
            [
              77.22012634277343,
              28.594337313038526
            ],
            [
              77.22034606933593,
              28.593686181065873
            ],
            [
              77.22034606933593,
              28.592986817095237
            ],
            [
              77.2200714111328,
              28.59279388910334
            ],
            [
              77.21886291503907,
              28.59279388910334
            ],
            [
              77.21858825683594,
              28.593445021075997
            ],
            [
              77.21858825683594,
              28.59414438504663
            ],
            [
              77.21880798339845,
              28.594337313038526
            ]
          ]
        ]
      }
    }
  ]
}