{
  "type": "FeatureCollection",
  "name": "kolkata_central_park_aoi",
  "crs": {
    "type": "name",
    "properties": {
      "name": "urn:ogc:def:crs:OGC:1.3:CRS84"
    }
  },
  "features": [
    {
      "type": "Feature",
      "properties": {
        "site_id": "WB_KOL_CP_001",
        "name": "Kolkata Central Park (Banabitan) Canopy Survey AOI",
        "park_name": "Banabitan (Central Park), Salt Lake Sector II",
        "city": "Kolkata",
        "district": "North 24 Parganas",
        "state": "West Bengal",
        "country": "India",
        "target_crs": "EPSG:32645",
        "survey_type": "Tree Crown Delineation & Canopy Monitoring",
        "area_sq_m": 51457.26,
        "area_hectares": 5.1457,
        "nominal_gsd_m": 0.27
      },
      "geometry": {
        "type": "Polygon",
        "coordinates": [
          [
            [
              88.4168,
              22.5851
            ],
            [
              88.4191,
              22.5851
            ],
            [
              88.41925,
              22.5861
            ],
            [
              88.4187,
              22.58715
            ],
            [
              88.4172,
              22.58715
            ],
            [
              88.41675,
              22.5862
            ],
            [
              88.4168,
              22.5851
            ]
          ]
        ]
      }
    }
  ]
}